CCSDS_OMM_VERS = 2.0
CREATION_DATE  = 
ORIGINATOR     = 

OBJECT_NAME    = SL-14 R/B
OBJECT_ID      = 1986-046B
CENTER_NAME    = EARTH
REF_FRAME      = TEME
TIME_SYSTEM    = UTC
MEAN_ELEMENT_THEORY = SGP/SGP4

EPOCH          = 2025-12-03T14:54:06.827040
MEAN_MOTION    = 14.85469081
ECCENTRICITY   = .0023026
INCLINATION    = 82.4812
RA_OF_ASC_NODE = 170.9260
ARG_OF_PERICENTER = 181.9579
MEAN_ANOMALY   = 178.1551

EPHEMERIS_TYPE = 0
CLASSIFICATION_TYPE = U
NORAD_CAT_ID   = 16792
ELEMENT_SET_NO = 999
REV_AT_EPOCH   = 11214
BSTAR          = .85705E-4
MEAN_MOTION_DOT = .767E-5
MEAN_MOTION_DDOT = 0

CCSDS_OMM_VERS = 2.0
CREATION_DATE  = 
ORIGINATOR     = 

OBJECT_NAME    = SL-14 R/B
OBJECT_ID      = 1986-055B
CENTER_NAME    = EARTH
REF_FRAME      = TEME
TIME_SYSTEM    = UTC
MEAN_ELEMENT_THEORY = SGP/SGP4

EPOCH          = 2025-12-03T18:06:55.260000
MEAN_MOTION    = 14.85516574
ECCENTRICITY   = .0017581
INCLINATION    = 82.5212
RA_OF_ASC_NODE = 216.8148
ARG_OF_PERICENTER = 291.7174
MEAN_ANOMALY   = 132.9568

EPHEMERIS_TYPE = 0
CLASSIFICATION_TYPE = U
NORAD_CAT_ID   = 16882
ELEMENT_SET_NO = 999
REV_AT_EPOCH   = 10512
BSTAR          = .87095E-4
MEAN_MOTION_DOT = .777E-5
MEAN_MOTION_DDOT = 0

CCSDS_OMM_VERS = 2.0
CREATION_DATE  = 
ORIGINATOR     = 

OBJECT_NAME    = AJISAI (EGS)
OBJECT_ID      = 1986-061A
CENTER_NAME    = EARTH
REF_FRAME      = TEME
TIME_SYSTEM    = UTC
MEAN_ELEMENT_THEORY = SGP/SGP4

EPOCH          = 2025-12-03T18:14:11.630112
MEAN_MOTION    = 12.44514149
ECCENTRICITY   = .0011267
INCLINATION    = 50.0113
RA_OF_ASC_NODE = 28.3295
ARG_OF_PERICENTER = 43.3835
MEAN_ANOMALY   = 76.1751

EPHEMERIS_TYPE = 0
CLASSIFICATION_TYPE = U
NORAD_CAT_ID   = 16908
ELEMENT_SET_NO = 999
REV_AT_EPOCH   = 45605
BSTAR          = .4707E-4
MEAN_MOTION_DOT = -.91E-6
MEAN_MOTION_DDOT = 0

CCSDS_OMM_VERS = 2.0
CREATION_DATE  = 
ORIGINATOR     = 

OBJECT_NAME    = COSMOS 1812
OBJECT_ID      = 1987-003A
CENTER_NAME    = EARTH
REF_FRAME      = TEME
TIME_SYSTEM    = UTC
MEAN_ELEMENT_THEORY = SGP/SGP4

EPOCH          = 2025-12-03T09:17:08.032128
MEAN_MOTION    = 15.73181571
ECCENTRICITY   = .0007177
INCLINATION    = 82.4871
RA_OF_ASC_NODE = 302.1237
ARG_OF_PERICENTER = 98.2600
MEAN_ANOMALY   = 261.9478

EPHEMERIS_TYPE = 0
CLASSIFICATION_TYPE = U
NORAD_CAT_ID   = 17295
ELEMENT_SET_NO = 999
REV_AT_EPOCH   = 12918
BSTAR          = .74322E-3
MEAN_MOTION_DOT = .103075E-2
MEAN_MOTION_DDOT = 0

CCSDS_OMM_VERS = 2.0
CREATION_DATE  = 
ORIGINATOR     = 

OBJECT_NAME    = SL-14 R/B
OBJECT_ID      = 1987-024B
CENTER_NAME    = EARTH
REF_FRAME      = TEME
TIME_SYSTEM    = UTC
MEAN_ELEMENT_THEORY = SGP/SGP4

EPOCH          = 2025-12-03T14:55:24.665664
MEAN_MOTION    = 14.86009312
ECCENTRICITY   = .001734
INCLINATION    = 82.5280
RA_OF_ASC_NODE = 183.0197
ARG_OF_PERICENTER = 215.3397
MEAN_ANOMALY   = 144.6671

EPHEMERIS_TYPE = 0
CLASSIFICATION_TYPE = U
NORAD_CAT_ID   = 17567
ELEMENT_SET_NO = 999
REV_AT_EPOCH   = 7386
BSTAR          = .78913E-4
MEAN_MOTION_DOT = .715E-5
MEAN_MOTION_DDOT = 0

CCSDS_OMM_VERS = 2.0
CREATION_DATE  = 
ORIGINATOR     = 

OBJECT_NAME    = COSMOS 1833
OBJECT_ID      = 1987-027A
CENTER_NAME    = EARTH
REF_FRAME      = TEME
TIME_SYSTEM    = UTC
MEAN_ELEMENT_THEORY = SGP/SGP4

EPOCH          = 2025-12-03T19:09:15.185088
MEAN_MOTION    = 14.13018639
ECCENTRICITY   = .0022144
INCLINATION    = 70.9128
RA_OF_ASC_NODE = 167.5745
ARG_OF_PERICENTER = 344.2988
MEAN_ANOMALY   = 15.7443

EPHEMERIS_TYPE = 0
CLASSIFICATION_TYPE = U
NORAD_CAT_ID   = 17589
ELEMENT_SET_NO = 999
REV_AT_EPOCH   = 99676
BSTAR          = .56815E-4
MEAN_MOTION_DOT = .58E-6
MEAN_MOTION_DDOT = 0

CCSDS_OMM_VERS = 2.0
CREATION_DATE  = 
ORIGINATOR     = 

OBJECT_NAME    = SL-16 R/B
OBJECT_ID      = 1987-027B
CENTER_NAME    = EARTH
REF_FRAME      = TEME
TIME_SYSTEM    = UTC
MEAN_ELEMENT_THEORY = SGP/SGP4

EPOCH          = 2025-12-03T18:25:16.809024
MEAN_MOTION    = 14.17152263
ECCENTRICITY   = .0007531
INCLINATION    = 71.0021
RA_OF_ASC_NODE = 118.6234
ARG_OF_PERICENTER = 269.1721
MEAN_ANOMALY   = 90.8539

EPHEMERIS_TYPE = 0
CLASSIFICATION_TYPE = U
NORAD_CAT_ID   = 17590
ELEMENT_SET_NO = 999
REV_AT_EPOCH   = 175
BSTAR          = .18596E-4
MEAN_MOTION_DOT = -.1E-6
MEAN_MOTION_DDOT = 0

CCSDS_OMM_VERS = 2.0
CREATION_DATE  = 
ORIGINATOR     = 

OBJECT_NAME    = SL-14 R/B
OBJECT_ID      = 1987-038B
CENTER_NAME    = EARTH
REF_FRAME      = TEME
TIME_SYSTEM    = UTC
MEAN_ELEMENT_THEORY = SGP/SGP4

EPOCH          = 2025-12-03T15:14:08.445408
MEAN_MOTION    = 14.85247798
ECCENTRICITY   = .0020632
INCLINATION    = 82.5025
RA_OF_ASC_NODE = 27.2763
ARG_OF_PERICENTER = 120.0711
MEAN_ANOMALY   = 240.2555

EPHEMERIS_TYPE = 0
CLASSIFICATION_TYPE = U
NORAD_CAT_ID   = 17912
ELEMENT_SET_NO = 999
REV_AT_EPOCH   = 6497
BSTAR          = .80966E-4
MEAN_MOTION_DOT = .721E-5
MEAN_MOTION_DDOT = 0

CCSDS_OMM_VERS = 2.0
CREATION_DATE  = 
ORIGINATOR     = 

OBJECT_NAME    = COSMOS 1844
OBJECT_ID      = 1987-041A
CENTER_NAME    = EARTH
REF_FRAME      = TEME
TIME_SYSTEM    = UTC
MEAN_ELEMENT_THEORY = SGP/SGP4

EPOCH          = 2025-12-03T20:44:02.853024
MEAN_MOTION    = 14.14527586
ECCENTRICITY   = .0030377
INCLINATION    = 70.8988
RA_OF_ASC_NODE = 236.2913
ARG_OF_PERICENTER = 171.2527
MEAN_ANOMALY   = 188.9131

EPHEMERIS_TYPE = 0
CLASSIFICATION_TYPE = U
NORAD_CAT_ID   = 17973
ELEMENT_SET_NO = 999
REV_AT_EPOCH   = 99003
BSTAR          = -.46018E-4
MEAN_MOTION_DOT = -.137E-5
MEAN_MOTION_DDOT = 0

CCSDS_OMM_VERS = 2.0
CREATION_DATE  = 
ORIGINATOR     = 

OBJECT_NAME    = SL-14 R/B
OBJECT_ID      = 1987-055B
CENTER_NAME    = EARTH
REF_FRAME      = TEME
TIME_SYSTEM    = UTC
MEAN_ELEMENT_THEORY = SGP/SGP4

EPOCH          = 2025-12-03T18:18:44.752608
MEAN_MOTION    = 14.85505742
ECCENTRICITY   = .0019989
INCLINATION    = 82.5000
RA_OF_ASC_NODE = 79.4476
ARG_OF_PERICENTER = 334.5129
MEAN_ANOMALY   = 25.5099

EPHEMERIS_TYPE = 0
CLASSIFICATION_TYPE = U
NORAD_CAT_ID   = 18153
ELEMENT_SET_NO = 999
REV_AT_EPOCH   = 5569
BSTAR          = .92471E-4
MEAN_MOTION_DOT = .825E-5
MEAN_MOTION_DDOT = 0

CCSDS_OMM_VERS = 2.0
CREATION_DATE  = 
ORIGINATOR     = 

OBJECT_NAME    = COSMOS 1867
OBJECT_ID      = 1987-060A
CENTER_NAME    = EARTH
REF_FRAME      = TEME
TIME_SYSTEM    = UTC
MEAN_ELEMENT_THEORY = SGP/SGP4

EPOCH          = 2025-12-03T17:31:41.136672
MEAN_MOTION    = 14.31483725
ECCENTRICITY   = .0013625
INCLINATION    = 65.0098
RA_OF_ASC_NODE = 215.4324
ARG_OF_PERICENTER = 270.1929
MEAN_ANOMALY   = 89.7594

EPHEMERIS_TYPE = 0
CLASSIFICATION_TYPE = U
NORAD_CAT_ID   = 18187
ELEMENT_SET_NO = 999
REV_AT_EPOCH   = 620
BSTAR          = .43906E-4
MEAN_MOTION_DOT = .17E-6
MEAN_MOTION_DDOT = 0

CCSDS_OMM_VERS = 2.0
CREATION_DATE  = 
ORIGINATOR     = 

OBJECT_NAME    = SL-14 R/B
OBJECT_ID      = 1988-001B
CENTER_NAME    = EARTH
REF_FRAME      = TEME
TIME_SYSTEM    = UTC
MEAN_ELEMENT_THEORY = SGP/SGP4

EPOCH          = 2025-12-03T14:48:51.016896
MEAN_MOTION    = 14.85407910
ECCENTRICITY   = .0017646
INCLINATION    = 82.5125
RA_OF_ASC_NODE = 285.7279
ARG_OF_PERICENTER = 191.1557
MEAN_ANOMALY   = 168.9270

EPHEMERIS_TYPE = 0
CLASSIFICATION_TYPE = U
NORAD_CAT_ID   = 18749
ELEMENT_SET_NO = 999
REV_AT_EPOCH   = 2776
BSTAR          = .93258E-4
MEAN_MOTION_DOT = .829E-5
MEAN_MOTION_DDOT = 0

