SL-14 R/B               
1 16792U 86046B   25337.62091235  .00000767  00000+0  85705-4 0  9995
2 16792  82.4812 170.9260 0023026 181.9579 178.1551 14.85469081112143
SL-14 R/B               
1 16882U 86055B   25337.75480625  .00000777  00000+0  87095-4 0  9999
2 16882  82.5212 216.8148 0017581 291.7174 132.9568 14.85516574105129
AJISAI (EGS)            
1 16908U 86061A   25337.75985683 -.00000091  00000+0  47070-4 0  9998
2 16908  50.0113  28.3295 0011267  43.3835  76.1751 12.44514149456050
COSMOS 1812             
1 17295U 87003A   25337.38689852  .00103075  00000+0  74322-3 0  9997
2 17295  82.4871 302.1237 0007177  98.2600 261.9478 15.73181571129188
SL-14 R/B               
1 17567U 87024B   25337.62181326  .00000715  00000+0  78913-4 0  9990
2 17567  82.5280 183.0197 0017340 215.3397 144.6671 14.86009312 73864
COSMOS 1833             
1 17589U 87027A   25337.79809242  .00000058  00000+0  56815-4 0  9996
2 17589  70.9128 167.5745 0022144 344.2988  15.7443 14.13018639996762
SL-16 R/B               
1 17590U 87027B   25337.76755566 -.00000010  00000+0  18596-4 0  9997
2 17590  71.0021 118.6234 0007531 269.1721  90.8539 14.17152263  1753
SL-14 R/B               
1 17912U 87038B   25337.63481997  .00000721  00000+0  80966-4 0  9995
2 17912  82.5025  27.2763 0020632 120.0711 240.2555 14.85247798 64970
COSMOS 1844             
1 17973U 87041A   25337.86392191 -.00000137  00000+0 -46018-4 0  9991
2 17973  70.8988 236.2913 0030377 171.2527 188.9131 14.14527586990035
SL-14 R/B               
1 18153U 87055B   25337.76301797  .00000825  00000+0  92471-4 0  9994
2 18153  82.5000  79.4476 0019989 334.5129  25.5099 14.85505742 55691
COSMOS 1867             
1 18187U 87060A   25337.73033723  .00000017  00000+0  43906-4 0  9997
2 18187  65.0098 215.4324 0013625 270.1929  89.7594 14.31483725  6201
SL-14 R/B               
1 18749U 88001B   25337.61725714  .00000829  00000+0  93258-4 0  9998
2 18749  82.5125 285.7279 0017646 191.1557 168.9270 14.85407910 27761
